{
  "type": "FeatureCollection",
  "features": [
    {
      "type": "Feature",
      "properties": {
        "norad_id": 67161,
        "name": "GALILEO B",
        "group": "last-30-days",
        "lat": -42.96260302649735,
        "lon": -30.956509338418392,
        "alt_km": 22928.273383546235,
        "timestamp": "2025-12-27T18:38:02.208036+00:00",
        "meta_object_name": "GALILEO B",
        "meta_object_id": "2025-302B",
        "meta_epoch": "2025-12-26T19:37:10.068960",
        "meta_mean_motion": 1.72972318,
        "meta_eccentricity": 0.00047769,
        "meta_inclination": 54.2304,
        "meta_ra_of_asc_node": 106.9693,
        "meta_arg_of_pericenter": 256.4913,
        "meta_mean_anomaly": 103.4489,
        "meta_ephemeris_type": 0,
        "meta_classification_type": "U",
        "meta_norad_cat_id": 67161,
        "meta_element_set_no": 999,
        "meta_rev_at_epoch": 18,
        "meta_bstar": 0,
        "meta_mean_motion_dot": 1.6e-07,
        "meta_mean_motion_ddot": 0,
        "tle_line1": "1 67161U 25302B   25360.81747765  .00000016  00000+0  00000+0 0  9999",
        "tle_line2": "2 67161  54.2304 106.9693 0004776 256.4913 103.4489  1.72972318   187"
      },
      "geometry": {
        "type": "Point",
        "coordinates": [
          -30.956509338418392,
          -42.96260302649735
        ]
      }
    },
    {
      "type": "Feature",
      "properties": {
        "norad_id": 67162,
        "name": "ARIANE 6 R/B",
        "group": "last-30-days",
        "lat": -46.34199090450774,
        "lon": -24.092507707543664,
        "alt_km": 22923.799538124746,
        "timestamp": "2025-12-27T18:38:02.208047+00:00",
        "meta_object_name": "ARIANE 6 R/B",
        "meta_object_id": "2025-302C",
        "meta_epoch": "2025-12-19T07:12:31.071168",
        "meta_mean_motion": 1.73130298,
        "meta_eccentricity": 2.559e-05,
        "meta_inclination": 54.2437,
        "meta_ra_of_asc_node": 107.222,
        "meta_arg_of_pericenter": 160.7324,
        "meta_mean_anomaly": 199.2296,
        "meta_ephemeris_type": 0,
        "meta_classification_type": "U",
        "meta_norad_cat_id": 67162,
        "meta_element_set_no": 999,
        "meta_rev_at_epoch": 8,
        "meta_bstar": 0,
        "meta_mean_motion_dot": -5e-08,
        "meta_mean_motion_ddot": 0,
        "tle_line1": "1 67162U 25302C   25353.30035962 -.00000005  00000+0  00000+0 0  9994",
        "tle_line2": "2 67162  54.2437 107.2220 0000255 160.7324 199.2296  1.73130298    88"
      },
      "geometry": {
        "type": "Point",
        "coordinates": [
          -24.092507707543664,
          -46.34199090450774
        ]
      }
    },
    {
      "type": "Feature",
      "properties": {
        "norad_id": 67219,
        "name": "DISKSAT A",
        "group": "last-30-days",
        "lat": 6.493946998247949,
        "lon": 84.47158801293604,
        "alt_km": 550.5095556532133,
        "timestamp": "2025-12-27T18:38:02.208057+00:00",
        "meta_object_name": "DISKSAT A",
        "meta_object_id": "2025-305A",
        "meta_epoch": "2025-12-20T09:08:30.149664",
        "meta_mean_motion": 15.05762698,
        "meta_eccentricity": 0.0003912,
        "meta_inclination": 45.0057,
        "meta_ra_of_asc_node": 310.0654,
        "meta_arg_of_pericenter": 276.1097,
        "meta_mean_anomaly": 83.9332,
        "meta_ephemeris_type": 0,
        "meta_classification_type": "U",
        "meta_norad_cat_id": 67219,
        "meta_element_set_no": 999,
        "meta_rev_at_epoch": 33,
        "meta_bstar": 5.0887e-05,
        "meta_mean_motion_dot": 5.1e-06,
        "meta_mean_motion_ddot": 0,
        "tle_line1": "1 67219U 25305A   25354.38090451  .00000510  00000+0  50887-4 0  9996",
        "tle_line2": "2 67219  45.0057 310.0654 0003912 276.1097  83.9332 15.05762698   337"
      },
      "geometry": {
        "type": "Point",
        "coordinates": [
          84.47158801293604,
          6.493946998247949
        ]
      }
    },
    {
      "type": "Feature",
      "properties": {
        "norad_id": 67220,
        "name": "DISKSAT B",
        "group": "last-30-days",
        "lat": 7.916549972549531,
        "lon": 83.0259727305963,
        "alt_km": 550.8437763703741,
        "timestamp": "2025-12-27T18:38:02.208069+00:00",
        "meta_object_name": "DISKSAT B",
        "meta_object_id": "2025-305B",
        "meta_epoch": "2025-12-20T05:57:31.803264",
        "meta_mean_motion": 15.05702195,
        "meta_eccentricity": 0.0004681,
        "meta_inclination": 45.0108,
        "meta_ra_of_asc_node": 310.7693,
        "meta_arg_of_pericenter": 270.4757,
        "meta_mean_anomaly": 89.5581,
        "meta_ephemeris_type": 0,
        "meta_classification_type": "U",
        "meta_norad_cat_id": 67220,
        "meta_element_set_no": 999,
        "meta_rev_at_epoch": 31,
        "meta_bstar": 5.1086e-05,
        "meta_mean_motion_dot": 5.11e-06,
        "meta_mean_motion_ddot": 0,
        "tle_line1": "1 67220U 25305B   25354.24828476  .00000511  00000+0  51086-4 0  9992",
        "tle_line2": "2 67220  45.0108 310.7693 0004681 270.4757  89.5581 15.05702195   312"
      },
      "geometry": {
        "type": "Point",
        "coordinates": [
          83.0259727305963,
          7.916549972549531
        ]
      }
    },
    {
      "type": "Feature",
      "properties": {
        "norad_id": 67221,
        "name": "DISKSAT C",
        "group": "last-30-days",
        "lat": 9.02573142322823,
        "lon": 81.87318824471133,
        "alt_km": 550.9827492053992,
        "timestamp": "2025-12-27T18:38:02.208080+00:00",
        "meta_object_name": "DISKSAT C",
        "meta_object_id": "2025-305C",
        "meta_epoch": "2025-12-20T07:33:11.308608",
        "meta_mean_motion": 15.0565367,
        "meta_eccentricity": 0.00043877,
        "meta_inclination": 45.0067,
        "meta_ra_of_asc_node": 310.4143,
        "meta_arg_of_pericenter": 282.7791,
        "meta_mean_anomaly": 77.2594,
        "meta_ephemeris_type": 0,
        "meta_classification_type": "U",
        "meta_norad_cat_id": 67221,
        "meta_element_set_no": 999,
        "meta_rev_at_epoch": 31,
        "meta_bstar": 0.00010190761,
        "meta_mean_motion_dot": 1.256e-05,
        "meta_mean_motion_ddot": 0,
        "tle_line1": "1 67221U 25305C   25354.31471422  .00001256  00000+0  10191-3 0  9994",
        "tle_line2": "2 67221  45.0067 310.4143 0004387 282.7791  77.2594 15.05653670   312"
      },
      "geometry": {
        "type": "Point",
        "coordinates": [
          81.87318824471133,
          9.02573142322823
        ]
      }
    },
    {
      "type": "Feature",
      "properties": {
        "norad_id": 67222,
        "name": "DISKSAT D",
        "group": "last-30-days",
        "lat": 11.095096091728623,
        "lon": 79.70826510473134,
        "alt_km": 551.136281951488,
        "timestamp": "2025-12-27T18:38:02.208093+00:00",
        "meta_object_name": "DISKSAT D",
        "meta_object_id": "2025-305D",
        "meta_epoch": "2025-12-20T07:33:21.625632",
        "meta_mean_motion": 15.05567005,
        "meta_eccentricity": 0.00044772,
        "meta_inclination": 45.0056,
        "meta_ra_of_asc_node": 310.415,
        "meta_arg_of_pericenter": 287.6101,
        "meta_mean_anomaly": 72.4284,
        "meta_ephemeris_type": 0,
        "meta_classification_type": "U",
        "meta_norad_cat_id": 67222,
        "meta_element_set_no": 999,
        "meta_rev_at_epoch": 31,
        "meta_bstar": 0.00010184381,
        "meta_mean_motion_dot": 1.252e-05,
        "meta_mean_motion_ddot": 0,
        "tle_line1": "1 67222U 25305D   25354.31483363  .00001252  00000+0  10184-3 0  9990",
        "tle_line2": "2 67222  45.0056 310.4150 0004477 287.6101  72.4284 15.05567005   317"
      },
      "geometry": {
        "type": "Point",
        "coordinates": [
          79.70826510473134,
          11.095096091728623
        ]
      }
    },
    {
      "type": "Feature",
      "properties": {
        "norad_id": 67223,
        "name": "ELECTRON KICK STAGE R/B",
        "group": "last-30-days",
        "lat": -10.538642443675569,
        "lon": 98.3446402537784,
        "alt_km": 301.42344841247177,
        "timestamp": "2025-12-27T18:38:02.208106+00:00",
        "meta_object_name": "ELECTRON KICK STAGE R/B",
        "meta_object_id": "2025-305E",
        "meta_epoch": "2025-12-23T06:58:48.011808",
        "meta_mean_motion": 15.48545747,
        "meta_eccentricity": 0.017749,
        "meta_inclination": 44.9877,
        "meta_ra_of_asc_node": 292.9264,
        "meta_arg_of_pericenter": 166.6089,
        "meta_mean_anomaly": 193.9601,
        "meta_ephemeris_type": 0,
        "meta_classification_type": "U",
        "meta_norad_cat_id": 67223,
        "meta_element_set_no": 999,
        "meta_rev_at_epoch": 79,
        "meta_bstar": 0.00018366,
        "meta_mean_motion_dot": 0.00018707,
        "meta_mean_motion_ddot": 0,
        "tle_line1": "1 67223U 25305E   25357.29083347  .00018707  00000+0  18366-3 0  9992",
        "tle_line2": "2 67223  44.9877 292.9264 0177490 166.6089 193.9601 15.48545747   794"
      },
      "geometry": {
        "type": "Point",
        "coordinates": [
          98.3446402537784,
          -10.538642443675569
        ]
      }
    }
  ]
}